MALLIGYONG-1            
1 58400U 23179A   24118.16989243  .00013101  00000+0  57240-3 0  9993
2 58400  97.4097   5.7869 0011201  84.5783 275.6731 15.22174112 23967
